YARILO 2                
1 46491U 20068F   24258.88317452  .00081337  00000+0  20728-2 0  9991
2 46491  97.8117 230.7030 0007416  22.5968 337.5601 15.39212441218563
LACUNASAT-3             
1 46492U 20068G   24259.87153346  .00089592  00000+0  21027-2 0  9996
2 46492  97.8134 232.9926 0005804  14.3475 345.7935 15.41692252218782
DEKART                  
1 46493U 20068H   24259.14472323  .00018690  00000+0  92930-3 0  9999
2 46493  97.8242 222.4584 0014299  17.9350 342.2384 15.17602103218022
NORBI                   
1 46494U 20068J   24259.90241923  .00025510  00000+0  11851-2 0  9995
2 46494  97.8245 224.4028 0013085  14.5768 345.5841 15.19909043218219
SALSAT                  
1 46495U 20068K   24258.89381915  .00015943  00000+0  84864-3 0  9993
2 46495  97.8250 220.5974 0013691  18.2710 341.9010 15.15243518217888
ICEYE-X6                
1 46497U 20068M   24259.43268694  .00010919  00000+0  86287-3 0  9993
2 46497  97.9710 217.6700 0007190  80.9452 279.2584 15.00829972217205
LEMUR-2-SLICERS         
1 46500U 20068Q   24259.90183680  .00402139  00000+0  18119-2 0  9998
2 46500  97.7521 238.3567 0006265 117.9146 242.2757 15.82997558219189
LEMUR-2-SUSURRUS        
1 46502U 20068S   24259.46503203  .00481361  00000+0  22603-2 0  9995
2 46502  97.7606 238.0440 0008918  89.4217 270.8072 15.81886168219114
NETSAT-4                
1 46504U 20068U   24258.87888111  .00021625  00000+0  10613-2 0  9996
2 46504  97.8131 218.6426 0011841  64.4792 295.7664 15.18052566217767
NETSAT-3                
1 46505U 20068V   24259.16247985  .00022661  00000+0  11297-2 0  9998
2 46505  97.8108 218.3276 0011360  71.2489 288.9975 15.17500462217791
NETSAT-1                
1 46506U 20068W   24258.86109027  .00016730  00000+0  89011-3 0  9999
2 46506  97.8127 217.2530 0010414  80.1131 280.1276 15.15282865217695
NETSAT-2                
1 46507U 20068X   24259.16247465  .00022949  00000+0  11261-2 0  9993
2 46507  97.8117 218.5405 0009757  83.6945 276.5399 15.18065096217759
TIANQI-6                
1 46810U 20076D   24259.63535159  .00010749  00000+0  87222-3 0  9997
2 46810  35.0027 352.6433 0012411 317.8425  42.1327 14.98876634212362
KSM1-C                  
1 46906U 20081B   24259.54557294  .00016381  00000+0  95772-3 0  9990
2 46906  36.8957   5.3536 0003304 297.2136  62.8271 15.11216806211884
KSM1-D                  
1 46907U 20081C   24259.75039557  .00016013  00000+0  94912-3 0  9998
2 46907  36.8995   5.5547 0005451 314.2306  45.7990 15.10719667211908
KSM1-A                  
1 46912U 20081H   24259.75296892  .00017192  00000+0  10096-2 0  9990
2 46912  36.8987   3.6418 0004449  26.0356 334.0612 15.11040501211922
R2                      
1 46913U 20081J   24259.53118700  .00014997  00000+0  88037-3 0  9999
2 46913  36.9028   3.2556 0009360 330.2548  29.7664 15.11065156211231
KSM1-B                  
1 46914U 20081K   24259.69718961  .00015580  00000+0  92506-3 0  9997
2 46914  36.9035   5.4464 0007920 336.3317  23.7062 15.10653630211171
GONETS-M 20             
1 47227U 20091A   24259.85571183  .00000040  00000+0  21281-3 0  9994
2 47227  82.5089 339.8281 0021947 135.2004 225.0852 12.42880538171787
GONETS-M 21             
1 47228U 20091B   24259.82791736  .00000038  00000+0  20218-3 0  9996
2 47228  82.5012 338.9483 0015879 147.6518 212.5538 12.42893958171773
GONETS-M 22             
1 47229U 20091C   24259.88285049  .00000028  00000+0  13251-3 0  9996
2 47229  82.5069 339.5147 0022975 129.2302 231.0822 12.42888962171773
UVSQ-SAT                
1 47438U 21006AB  24259.59406902  .00242599  00000+0  20286-2 0  9992
2 47438  97.3111 322.2971 0006459 227.0921 132.9799 15.69248428202792
SOMP2B                  
1 47445U 21006AJ  24258.90462668  .00157479  00000+0  18519-2 0  9993
2 47445  97.3080 319.1931 0006029 236.5096 123.5586 15.60889399202561
CUBEL                   
1 47448U 21006AM  24259.40004534  .00011844  00000+0  49722-3 0  9992
2 47448  97.3341 308.8103 0008222 305.0386  55.0080 15.23580463201747
IDEASSAT                
1 47458U 21006AX  24259.22677858  .00111632  00000+0  16301-2 0  9990
2 47458  97.3204 319.6775 0005643 237.3898 122.6812 15.55252592202514
ASTROCAST-0103          
1 47487U 21006CC  24258.87366222  .00028647  00000+0  95316-3 0  9999
2 47487  97.3455 311.5915 0004543 324.1256  35.9680 15.31103206201858
ASTROCAST-0102          
1 47488U 21006CD  24258.87975371  .00065010  00000+0  16849-2 0  9999
2 47488  97.3328 311.7530 0007162 249.9660 110.0815 15.38769801201936
ASTROCAST-0104          
1 47519U 21006DK  24258.86900790  .00024381  00000+0  82448-3 0  9991
2 47519  97.3396 310.8612 0004644 292.2782  67.7966 15.30611193201842
ARKTIKA-M 1             
1 47719U 21016A   24257.98172683  .00000071  00000+0  00000+0 0  9998
2 47719  63.1322 141.4982 6973344 268.5561  17.7619  2.00618702 25931
STARLINK-2342           
1 47883U 21021Z   24259.50383775  .00034163  00000+0  23017-2 0  9997
2 47883  53.0540 181.6087 0002368  80.5183 279.6073 15.06392178194228
GRUS-1B                 
1 47934U 21022C   24259.85226082  .00006242  00000+0  54543-3 0  9996
2 47934  97.6136 150.5471 0015843 313.4188  46.5714 14.97036169190174
2021-022F               
1 47937U 21022F   24259.84941183  .00015585  00000+0  76223-3 0  9993
2 47937  97.4484 154.0948 0013117 177.7491 182.3804 15.18224952192195
CANYVAL-C (PUMBAA)      
1 47938U 21022G   24259.84193313  .00049550  00000+0  15709-2 0  9998
2 47938  97.4435 158.1898 0013150 160.6463 199.5281 15.32460376192498
2021-022H               
1 47939U 21022H   24259.88359777  .00142722  00000+0  23673-2 0  9995
2 47939  97.4487 166.0228 0013081 119.5647 240.6911 15.51528346192953
WILDTRACKCUBE-SIMBA     
1 47941U 21022K   24259.83129602  .00032327  00000+0  12674-2 0  9993
2 47941  97.4469 155.9537 0014373 174.3882 185.7520 15.25599522192265
HIBER-3                 
1 47942U 21022L   24259.17763111  .00078648  00000+0  18562-2 0  9998
2 47942  97.4428 160.8536 0012329 144.7982 215.4081 15.41510747192562
2021-022M               
1 47943U 21022M   24259.88279722  .00138833  00000+0  23435-2 0  9995
2 47943  97.4475 166.0937 0012864 121.7633 238.4874 15.51052018192827
ELSA-D                  
1 47944U 21022N   24259.18140402  .00039183  00000+0  12875-2 0  9995
2 47944  97.4494 159.2411 0012715 152.3001 207.8920 15.31372552192451
UNISAT-7                
1 47945U 21022P   24259.18096363  .00016613  00000+0  77279-3 0  9995
2 47945  97.4463 153.6883 0013802 176.4138 183.7198 15.19941425191966
2021-022Q               
1 47946U 21022Q   24259.84715532  .00036295  00000+0  12959-2 0  9996
2 47946  97.4477 158.3982 0013204 153.5626 206.6290 15.28683563192457
NANOSATC-BR2            
1 47950U 21022U   24259.88495744  .00103203  00000+0  22320-2 0  9992
2 47950  97.4409 161.8498 0012751 143.2428 216.9697 15.44017993192697
CUBESX-SIRIUS-HSE       
1 47951U 21022V   24259.86181742  .00047075  00000+0  15214-2 0  9999
2 47951  97.4467 158.2702 0013486 162.1041 198.0678 15.31852348192424
CUBESX-HSE              
1 47952U 21022W   24259.87225453  .00050472  00000+0  16197-2 0  9995
2 47952  97.4466 158.3931 0013532 160.9649 199.2101 15.32060846192431
2021-022X               
1 47953U 21022X   24259.81983751  .00027272  00000+0  11572-2 0  9996
2 47953  97.4445 154.3021 0014573 180.8203 179.3012 15.22972541191913
KSU-CUBESAT             
1 47954U 21022Y   24259.71430264  .00065282  00000+0  18097-2 0  9994
2 47954  97.4475 160.0582 0012894 152.2903 207.9030 15.36627223192241
CHALLENGE ONE           
1 47956U 21022AA  24259.67595983  .00057022  00000+0  17356-2 0  9991
2 47956  97.4469 158.6139 0013518 161.3682 198.8058 15.33717516192213
2021-022AC              
1 47958U 21022AC  24259.84638101  .00030173  00000+0  12383-2 0  9995
2 47958  97.4420 154.5492 0014611 178.7934 181.3341 15.24077632191024
GRBALPHA                
1 47959U 21022AD  24259.83155464  .00049189  00000+0  15761-2 0  9991
2 47959  97.4466 158.5156 0013431 161.0243 199.1502 15.32118416191259
ORBICRAFT-ZORKY         
1 47960U 21022AE  24259.81599818  .00063648  00000+0  18516-2 0  9993
2 47960  97.4509 160.1587 0012796 155.6528 204.5322 15.35125481192024
GLOBAL-9                
1 47971U 21023G   24259.16758656  .00050273  00000+0  11678-2 0  9993
2 47971  44.9878 212.9861 0009736 199.0706 160.9819 15.41613559196264
BCCSAT-1                
1 48041U 21022AK  24259.74034755  .01899474  26388-2  29233-2 0  9993
2 48041  97.4374 171.8884 0011143 144.0643 216.1389 16.04843641192089
BEESAT-8                
1 48085U 21022AP  24259.18073478  .00067034  00000+0  16049-2 0  9993
2 48085  97.4676 162.6186 0012467 144.7134 215.4940 15.41126820191691
2021-033E               
1 48252U 21033E   24259.88485612  .00111979  00000+0  12927-2 0  9994
2 48252  97.2529 335.5106 0006607 192.0515 168.0586 15.61520626189345
AII-BRAVO               
1 48270U 21034C   24259.06681585  .00011213  00000+0  10485-2 0  9999
2 48270  97.6482 318.0878 0002652 217.1954 142.9083 14.94278567183684
TYVAK-182A              
1 48271U 21034D   24259.47507885  .00011540  00000+0  10413-2 0  9999
2 48271  97.6468 319.7345 0000544 273.5368  86.5791 14.95677241183827
CSS (TIANHE)            
1 48274U 21035A   24259.89040957  .00034743  00000+0  35797-3 0  9994
2 48274  41.4675 250.1083 0002260 159.1738 200.9194 15.64109277193287
TYVAK-0130              
1 48606U 21041BF  24258.84269024  .00016410  00000+0  98197-3 0  9996
2 48606  53.0314  88.7003 0010809 352.2127   7.8695 15.11131931182932
HAIYANG-2D              
1 48621U 21043A   24259.84509019  .00000096  00000+0  16110-3 0  9995
2 48621  65.9958  96.4412 0011268 264.5873  95.3909 13.83375724168153
2021-050D               
1 48843U 21050D   24259.83902340  .00019129  00000+0  78348-3 0  9990
2 48843  97.3968 336.6955 0008042  17.2805 342.8704 15.24309367181610
